0 SL-8 R/B
1 10745U 78031B   13282.49250411 -.00000052  00000-0 -66071-4 0  8989
2 10745 082.9243 278.4361 0033644 279.2652 192.9354 13.78375780786914
0 SL-8 R/B
1 10745U 78031B   13287.12572454 -.00000024  00000-0 -38474-4 0  9007
2 10745 082.9247 274.9747 0033710 265.7335 144.2231 13.78376061787557
0 SL-8 R/B
1 10745U 78031B   13289.47020169 -.00000024  00000-0 -38706-4 0  9017
2 10745 082.9250 273.2232 0033829 258.8839 258.1526 13.78375561787876
0 SL-8 R/B
1 10745U 78031B   13291.49468212 -.00000002  00000-0 -16822-4 0  9029
2 10745 082.9253 271.7108 0033895 253.0194 224.1205 13.78375424788155
0 SL-8 R/B
1 10745U 78031B   13293.86857574 -.00000003  00000-0 -17775-4 0  9035
2 10745 082.9257 269.9375 0034006 246.1643 123.9376 13.78375312788488
0 SL-8 R/B
1 10745U 78031B   13296.05831530 -.00000005  00000-0 -19809-4 0  9046
2 10745 082.9260 268.3019 0034104 239.8430 189.9355 13.78375417788780
